LUR-1                   
1 60506U 24149AQ  26068.79566301  .00009121  00000+0  32985-3 0  9998
2 60506  97.3790 148.4255 0002777 309.1571  50.9421 15.28658648 86785
STARLINK-33871          
1 63994U 25101A   26068.18039046  .00040629  00000+0  14774-2 0  9998
2 63994  43.0021   1.1587 0001047 262.5592  97.5140 15.27590821 46903
